{
  "links" : {
    "next" : "https://api.nasa.gov/neo/rest/v1/feed?start_date=2001-03-16&end_date=2001-03-16&detailed=true&api_key=t0TVs3DtDT2H8Oy2Zy8m2eVrNsAVKAexjcZXUckd",
    "prev" : "https://api.nasa.gov/neo/rest/v1/feed?start_date=2001-03-14&end_date=2001-03-14&detailed=true&api_key=t0TVs3DtDT2H8Oy2Zy8m2eVrNsAVKAexjcZXUckd",
    "self" : "https://api.nasa.gov/neo/rest/v1/feed?start_date=2001-03-15&end_date=2001-03-15&detailed=true&api_key=t0TVs3DtDT2H8Oy2Zy8m2eVrNsAVKAexjcZXUckd"
  },
  "element_count" : 5,
  "near_earth_objects" : {
    "2001-03-15" : [ {
      "links" : {
        "self" : "https://api.nasa.gov/neo/rest/v1/neo/3449591?api_key=t0TVs3DtDT2H8Oy2Zy8m2eVrNsAVKAexjcZXUckd"
      },
      "neo_reference_id" : "3449591",
      "name" : "(2009 EP2)",
      "nasa_jpl_url" : "http://ssd.jpl.nasa.gov/sbdb.cgi?sstr=3449591",
      "absolute_magnitude_h" : 21.6,
      "estimated_diameter" : {
        "kilometers" : {
          "estimated_diameter_min" : 0.1272198785,
          "estimated_diameter_max" : 0.2844722965
        },
        "meters" : {
          "estimated_diameter_min" : 127.2198785394,
          "estimated_diameter_max" : 284.4722965033
        },
        "miles" : {
          "estimated_diameter_min" : 0.0790507431,
          "estimated_diameter_max" : 0.1767628354
        },
        "feet" : {
          "estimated_diameter_min" : 417.3880663071,
          "estimated_diameter_max" : 933.3080892598
        }
      },
      "is_potentially_hazardous_asteroid" : true,
      "close_approach_data" : [ {
        "close_approach_date" : "2001-03-15",
        "epoch_date_close_approach" : 984643200000,
        "relative_velocity" : {
          "kilometers_per_second" : "20.0500597085",
          "kilometers_per_hour" : "72180.2149505417",
          "miles_per_hour" : "44849.9785619074"
        },
        "miss_distance" : {
          "astronomical" : "0.1454015047",
          "lunar" : "56.5611877441",
          "kilometers" : "21751756",
          "miles" : "13515915"
        },
        "orbiting_body" : "Earth"
      } ],
      "orbital_data" : {
        "orbit_id" : "19",
        "orbit_determination_date" : "2017-04-06 09:01:04",
        "orbit_uncertainty" : "1",
        "minimum_orbit_intersection" : ".0427555",
        "jupiter_tisserand_invariant" : "6.311",
        "epoch_osculation" : "2458000.5",
        "eccentricity" : ".3562067153564716",
        "semi_major_axis" : ".9270234354518859",
        "inclination" : "27.70259978469233",
        "ascending_node_longitude" : "175.1808225446324",
        "orbital_period" : "326.012683770088",
        "perihelion_distance" : ".5968114624510975",
        "perihelion_argument" : "129.8181353715109",
        "aphelion_distance" : "1.257235408452674",
        "perihelion_time" : "2457924.230666489952",
        "mean_anomaly" : "84.22052708532252",
        "mean_motion" : "1.104251515115531",
        "equinox" : "J2000"
      }
    }, {
      "links" : {
        "self" : "https://api.nasa.gov/neo/rest/v1/neo/3732114?api_key=t0TVs3DtDT2H8Oy2Zy8m2eVrNsAVKAexjcZXUckd"
      },
      "neo_reference_id" : "3732114",
      "name" : "(2015 UG51)",
      "nasa_jpl_url" : "http://ssd.jpl.nasa.gov/sbdb.cgi?sstr=3732114",
      "absolute_magnitude_h" : 25.8,
      "estimated_diameter" : {
        "kilometers" : {
          "estimated_diameter_min" : 0.0183888672,
          "estimated_diameter_max" : 0.0411187571
        },
        "meters" : {
          "estimated_diameter_min" : 18.388867207,
          "estimated_diameter_max" : 41.1187571041
        },
        "miles" : {
          "estimated_diameter_min" : 0.0114263088,
          "estimated_diameter_max" : 0.0255500032
        },
        "feet" : {
          "estimated_diameter_min" : 60.3309310875,
          "estimated_diameter_max" : 134.9040630575
        }
      },
      "is_potentially_hazardous_asteroid" : false,
      "close_approach_data" : [ {
        "close_approach_date" : "2001-03-15",
        "epoch_date_close_approach" : 984643200000,
        "relative_velocity" : {
          "kilometers_per_second" : "21.4998633341",
          "kilometers_per_hour" : "77399.5080028864",
          "miles_per_hour" : "48093.0442921268"
        },
        "miss_distance" : {
          "astronomical" : "0.4598409135",
          "lunar" : "178.878112793",
          "kilometers" : "68791224",
          "miles" : "42744884"
        },
        "orbiting_body" : "Earth"
      } ],
      "orbital_data" : {
        "orbit_id" : "10",
        "orbit_determination_date" : "2017-04-06 08:31:10",
        "orbit_uncertainty" : "6",
        "minimum_orbit_intersection" : ".0154822",
        "jupiter_tisserand_invariant" : "5.786",
        "epoch_osculation" : "2458000.5",
        "eccentricity" : ".2395006669387062",
        "semi_major_axis" : "1.059836058438762",
        "inclination" : ".900820415160502",
        "ascending_node_longitude" : "95.21481383778308",
        "orbital_period" : "398.5258197625747",
        "perihelion_distance" : ".806004615596989",
        "perihelion_argument" : "189.7318556369445",
        "aphelion_distance" : "1.313667501280535",
        "perihelion_time" : "2458029.847596115147",
        "mean_anomaly" : "333.4894602117696",
        "mean_motion" : ".9033291750443503",
        "equinox" : "J2000"
      }
    } ]
  }
}